NAVSTAR 77 (USA 289)    
1 43873U 18109A   24161.36299147  .00000008  00000+0  00000+0 0  9995
2 43873  55.2948 121.3368 0028892 195.5061 344.6325  2.00555764 40274
